{"fetched_at":"2026-07-23T07:05:44.990Z","source":"https://celestrak.org/NORAD/elements/gp.php?NAME=HULIANWANG&FORMAT=JSON","constellation":"guowang","records":[{"OBJECT_NAME":"HULIANWANG JISHU SHIYAN A","OBJECT_ID":"2023-095A","EPOCH":"2026-07-22T21:16:28.263072","CLASSIFICATION_TYPE":"U","MEAN_MOTION":13.39544645,"ECCENTRICITY":0.00195441,"INCLINATION":86.5052,"RA_OF_ASC_NODE":352.4168,"ARG_OF_PERICENTER":91.9113,"MEAN_ANOMALY":268.4268,"EPHEMERIS_TYPE":0,"NORAD_CAT_ID":57288,"ELEMENT_SET_NO":999,"REV_AT_EPOCH":14853,"BSTAR":0.000059216621,"MEAN_MOTION_DOT":4.7e-7,"MEAN_MOTION_DDOT":0},{"OBJECT_NAME":"HULIANWANG JISHU SHIYAN B","OBJECT_ID":"2023-095B","EPOCH":"2026-07-22T21:04:09.156000","CLASSIFICATION_TYPE":"U","MEAN_MOTION":13.39553269,"ECCENTRICITY":0.00181147,"INCLINATION":86.5054,"RA_OF_ASC_NODE":352.4293,"ARG_OF_PERICENTER":90.1533,"MEAN_ANOMALY":270.1686,"EPHEMERIS_TYPE":0,"NORAD_CAT_ID":57289,"ELEMENT_SET_NO":999,"REV_AT_EPOCH":14853,"BSTAR":0.00005970212,"MEAN_MOTION_DOT":4.8e-7,"MEAN_MOTION_DDOT":0},{"OBJECT_NAME":"HULIANWANG JISHU SHIYAN 4A","OBJECT_ID":"2023-212A","EPOCH":"2026-07-22T20:05:42.061632","CLASSIFICATION_TYPE":"U","MEAN_MOTION":13.41459486,"ECCENTRICITY":0.00012359,"INCLINATION":49.9981,"RA_OF_ASC_NODE":213.1309,"ARG_OF_PERICENTER":246.2573,"MEAN_ANOMALY":113.8175,"EPHEMERIS_TYPE":0,"NORAD_CAT_ID":58691,"ELEMENT_SET_NO":999,"REV_AT_EPOCH":12603,"BSTAR":0.000070075373,"MEAN_MOTION_DOT":-8.9e-7,"MEAN_MOTION_DDOT":0},{"OBJECT_NAME":"HULIANWANG JISHU SHIYAN 4B","OBJECT_ID":"2023-212B","EPOCH":"2026-07-22T19:56:01.569408","CLASSIFICATION_TYPE":"U","MEAN_MOTION":13.41460567,"ECCENTRICITY":0.00013749,"INCLINATION":49.995,"RA_OF_ASC_NODE":213.5112,"ARG_OF_PERICENTER":235.4204,"MEAN_ANOMALY":124.6544,"EPHEMERIS_TYPE":0,"NORAD_CAT_ID":58692,"ELEMENT_SET_NO":999,"REV_AT_EPOCH":12603,"BSTAR":0.000064858532,"MEAN_MOTION_DOT":-9.2e-7,"MEAN_MOTION_DDOT":0},{"OBJECT_NAME":"HULIANWANG JISHU SHIYAN 4C","OBJECT_ID":"2023-212C","EPOCH":"2026-07-22T20:00:41.107104","CLASSIFICATION_TYPE":"U","MEAN_MOTION":13.4146249,"ECCENTRICITY":0.00012195,"INCLINATION":49.9964,"RA_OF_ASC_NODE":213.6269,"ARG_OF_PERICENTER":224.8863,"MEAN_ANOMALY":135.1916,"EPHEMERIS_TYPE":0,"NORAD_CAT_ID":58693,"ELEMENT_SET_NO":999,"REV_AT_EPOCH":12604,"BSTAR":0.0000826475,"MEAN_MOTION_DOT":-8.2e-7,"MEAN_MOTION_DDOT":0},{"OBJECT_NAME":"HULIANWANG DIGUI-01","OBJECT_ID":"2024-240A","EPOCH":"2026-07-22T21:12:34.215840","CLASSIFICATION_TYPE":"U","MEAN_MOTION":13.2441179,"ECCENTRICITY":0.00020446,"INCLINATION":86.5026,"RA_OF_ASC_NODE":331.1963,"ARG_OF_PERICENTER":104.0736,"MEAN_ANOMALY":256.0625,"EPHEMERIS_TYPE":0,"NORAD_CAT_ID":62323,"ELEMENT_SET_NO":999,"REV_AT_EPOCH":7736,"BSTAR":-0.000004524043,"MEAN_MOTION_DOT":1.3e-7,"MEAN_MOTION_DDOT":0},{"OBJECT_NAME":"HULIANWANG DIGUI-02","OBJECT_ID":"2024-240B","EPOCH":"2026-07-22T21:23:18.860928","CLASSIFICATION_TYPE":"U","MEAN_MOTION":13.24411708,"ECCENTRICITY":0.00020158,"INCLINATION":86.5055,"RA_OF_ASC_NODE":331.3631,"ARG_OF_PERICENTER":104.753,"MEAN_ANOMALY":255.3827,"EPHEMERIS_TYPE":0,"NORAD_CAT_ID":62324,"ELEMENT_SET_NO":999,"REV_AT_EPOCH":7737,"BSTAR":0.000022393422,"MEAN_MOTION_DOT":2.4e-7,"MEAN_MOTION_DDOT":0},{"OBJECT_NAME":"HULIANWANG DIGUI-03","OBJECT_ID":"2024-240C","EPOCH":"2026-07-22T21:01:40.463328","CLASSIFICATION_TYPE":"U","MEAN_MOTION":13.2441041,"ECCENTRICITY":0.0002062,"INCLINATION":86.5009,"RA_OF_ASC_NODE":331.0949,"ARG_OF_PERICENTER":102.2966,"MEAN_ANOMALY":257.8399,"EPHEMERIS_TYPE":0,"NORAD_CAT_ID":62325,"ELEMENT_SET_NO":999,"REV_AT_EPOCH":7736,"BSTAR":0.000016833689,"MEAN_MOTION_DOT":2.2e-7,"MEAN_MOTION_DDOT":0},{"OBJECT_NAME":"HULIANWANG DIGUI-04","OBJECT_ID":"2024-240D","EPOCH":"2026-07-22T20:50:49.115328","CLASSIFICATION_TYPE":"U","MEAN_MOTION":13.24410674,"ECCENTRICITY":0.00021828,"INCLINATION":86.5018,"RA_OF_ASC_NODE":331.1417,"ARG_OF_PERICENTER":101.3184,"MEAN_ANOMALY":258.8196,"EPHEMERIS_TYPE":0,"NORAD_CAT_ID":62326,"ELEMENT_SET_NO":999,"REV_AT_EPOCH":7736,"BSTAR":0.000030002195,"MEAN_MOTION_DOT":2.8e-7,"MEAN_MOTION_DDOT":0},{"OBJECT_NAME":"HULIANWANG DIGUI-05","OBJECT_ID":"2024-240E","EPOCH":"2026-07-22T20:39:56.258784","CLASSIFICATION_TYPE":"U","MEAN_MOTION":13.24411325,"ECCENTRICITY":0.00022056,"INCLINATION":86.5071,"RA_OF_ASC_NODE":331.4338,"ARG_OF_PERICENTER":98.8143,"MEAN_ANOMALY":261.3241,"EPHEMERIS_TYPE":0,"NORAD_CAT_ID":62327,"ELEMENT_SET_NO":999,"REV_AT_EPOCH":7736,"BSTAR":0.000050070273,"MEAN_MOTION_DOT":3.6e-7,"MEAN_MOTION_DDOT":0},{"OBJECT_NAME":"HULIANWANG DIGUI-06","OBJECT_ID":"2024-240F","EPOCH":"2026-07-22T22:06:59.425632","CLASSIFICATION_TYPE":"U","MEAN_MOTION":13.2440883,"ECCENTRICITY":0.00022066,"INCLINATION":86.5008,"RA_OF_ASC_NODE":331.0485,"ARG_OF_PERICENTER":105.1125,"MEAN_ANOMALY":255.0254,"EPHEMERIS_TYPE":0,"NORAD_CAT_ID":62328,"ELEMENT_SET_NO":999,"REV_AT_EPOCH":7737,"BSTAR":0.00011075173,"MEAN_MOTION_DOT":6.2e-7,"MEAN_MOTION_DDOT":0},{"OBJECT_NAME":"HULIANWANG DIGUI-07","OBJECT_ID":"2024-240G","EPOCH":"2026-07-22T21:56:04.208640","CLASSIFICATION_TYPE":"U","MEAN_MOTION":13.24411304,"ECCENTRICITY":0.00020942,"INCLINATION":86.4978,"RA_OF_ASC_NODE":330.8795,"ARG_OF_PERICENTER":103.7984,"MEAN_ANOMALY":256.3383,"EPHEMERIS_TYPE":0,"NORAD_CAT_ID":62329,"ELEMENT_SET_NO":999,"REV_AT_EPOCH":7737,"BSTAR":0.00011576102,"MEAN_MOTION_DOT":6.4e-7,"MEAN_MOTION_DDOT":0},{"OBJECT_NAME":"HULIANWANG DIGUI-08","OBJECT_ID":"2024-240H","EPOCH":"2026-07-22T20:29:03.187968","CLASSIFICATION_TYPE":"U","MEAN_MOTION":13.24411668,"ECCENTRICITY":0.00022673,"INCLINATION":86.5062,"RA_OF_ASC_NODE":331.3824,"ARG_OF_PERICENTER":98.2924,"MEAN_ANOMALY":261.8467,"EPHEMERIS_TYPE":0,"NORAD_CAT_ID":62330,"ELEMENT_SET_NO":999,"REV_AT_EPOCH":7736,"BSTAR":0.00010576921,"MEAN_MOTION_DOT":6e-7,"MEAN_MOTION_DDOT":0},{"OBJECT_NAME":"HULIANWANG DIGUI-09","OBJECT_ID":"2024-240J","EPOCH":"2026-07-22T21:45:12.249792","CLASSIFICATION_TYPE":"U","MEAN_MOTION":13.24410235,"ECCENTRICITY":0.00020407,"INCLINATION":86.5027,"RA_OF_ASC_NODE":331.2139,"ARG_OF_PERICENTER":102.7306,"MEAN_ANOMALY":257.4056,"EPHEMERIS_TYPE":0,"NORAD_CAT_ID":62331,"ELEMENT_SET_NO":999,"REV_AT_EPOCH":7736,"BSTAR":0.000090026632,"MEAN_MOTION_DOT":5.3e-7,"MEAN_MOTION_DDOT":0},{"OBJECT_NAME":"HULIANWANG DIGUI-10","OBJECT_ID":"2024-240K","EPOCH":"2026-07-22T21:34:19.506432","CLASSIFICATION_TYPE":"U","MEAN_MOTION":13.24411047,"ECCENTRICITY":0.00021497,"INCLINATION":86.5058,"RA_OF_ASC_NODE":331.3797,"ARG_OF_PERICENTER":104.4724,"MEAN_ANOMALY":255.6649,"EPHEMERIS_TYPE":0,"NORAD_CAT_ID":62332,"ELEMENT_SET_NO":999,"REV_AT_EPOCH":7736,"BSTAR":0.000060855136,"MEAN_MOTION_DOT":4.1e-7,"MEAN_MOTION_DDOT":0},{"OBJECT_NAME":"HULIANWANG DIGUI-11","OBJECT_ID":"2025-030A","EPOCH":"2026-07-22T20:53:30.063840","CLASSIFICATION_TYPE":"U","MEAN_MOTION":13.2932478,"ECCENTRICITY":0.00008914,"INCLINATION":50.0007,"RA_OF_ASC_NODE":107.8346,"ARG_OF_PERICENTER":296.7887,"MEAN_ANOMALY":63.2893,"EPHEMERIS_TYPE":0,"NORAD_CAT_ID":62971,"ELEMENT_SET_NO":999,"REV_AT_EPOCH":7060,"BSTAR":0.000050732653,"MEAN_MOTION_DOT":-0.000001,"MEAN_MOTION_DDOT":0}]}
