HULIANWANG JISHU SHIYAN*
1 57288U 23095A   26203.88643823  .00000047  00000+0  59217-4 0  9992
2 57288  86.5052 352.4168 0019544  91.9113 268.4268 13.39544645148535
HULIANWANG JISHU SHIYAN*
1 57289U 23095B   26203.87788375  .00000048  00000+0  59702-4 0  9994
2 57289  86.5054 352.4293 0018114  90.1533 270.1686 13.39553269148532
HULIANWANG JISHU SHIYAN*
1 58691U 23212A   26203.83729238 -.00000089  00000+0  70075-4 0  9994
2 58691  49.9981 213.1309 0001235 246.2573 113.8175 13.41459486126033
HULIANWANG JISHU SHIYAN*
1 58692U 23212B   26203.83057372 -.00000092  00000+0  64859-4 0  9995
2 58692  49.9950 213.5112 0001374 235.4204 124.6544 13.41460567126033
HULIANWANG JISHU SHIYAN*
1 58693U 23212C   26203.83380911 -.00000082  00000+0  82648-4 0  9999
2 58693  49.9964 213.6269 0001219 224.8863 135.1916 13.41462490126042
HULIANWANG DIGUI-01     
1 62323U 24240A   26203.88372935  .00000013  00000+0 -45240-5 0  9990
2 62323  86.5026 331.1963 0002044 104.0736 256.0625 13.24411790 77363
HULIANWANG DIGUI-02     
1 62324U 24240B   26203.89119052  .00000024  00000+0  22393-4 0  9995
2 62324  86.5055 331.3631 0002015 104.7530 255.3827 13.24411708 77373
HULIANWANG DIGUI-03     
1 62325U 24240C   26203.87616277  .00000022  00000+0  16834-4 0  9996
2 62325  86.5009 331.0949 0002062 102.2966 257.8399 13.24410410 77369
HULIANWANG DIGUI-04     
1 62326U 24240D   26203.86862402  .00000028  00000+0  30002-4 0  9998
2 62326  86.5018 331.1417 0002182 101.3184 258.8196 13.24410674 77364
HULIANWANG DIGUI-05     
1 62327U 24240E   26203.86106781  .00000036  00000+0  50070-4 0  9996
2 62327  86.5071 331.4338 0002205  98.8143 261.3241 13.24411325 77364
HULIANWANG DIGUI-06     
1 62328U 24240F   26203.92152113  .00000062  00000+0  11075-3 0  9994
2 62328  86.5008 331.0485 0002206 105.1125 255.0254 13.24408830 77379
HULIANWANG DIGUI-07     
1 62329U 24240G   26203.91393760  .00000064  00000+0  11576-3 0  9997
2 62329  86.4978 330.8795 0002094 103.7984 256.3383 13.24411304 77375
HULIANWANG DIGUI-08     
1 62330U 24240H   26203.85350912  .00000060  00000+0  10577-3 0  9990
2 62330  86.5062 331.3824 0002267  98.2924 261.8467 13.24411668 77361
HULIANWANG DIGUI-09     
1 62331U 24240J   26203.90639178  .00000053  00000+0  90027-4 0  9992
2 62331  86.5027 331.2139 0002040 102.7306 257.4056 13.24410235 77369
HULIANWANG DIGUI-10     
1 62332U 24240K   26203.89883688  .00000041  00000+0  60855-4 0  9991
2 62332  86.5058 331.3797 0002149 104.4724 255.6649 13.24411047 77368
HULIANWANG DIGUI-11     
1 62971U 25030A   26203.87048685 -.00000100  00000+0  50733-4 0  9997
2 62971  50.0007 107.8346 0000891 296.7887  63.2893 13.29324780 70606
